FENGYUN 1C DEB          
1 31842U 99025CJG 17345.92123183  .00002673  00000-0  10681-3 0  9999
2 31842  98.1963  30.0896 0193263 135.1632 226.5396 15.10637099563410
